ATLAS CENTAUR R/B       
1 06155U 72065B   25326.04749709  .00001316  00000+0  18370-3 0  9997
2 06155  35.0007 216.4032 0033892 186.1218 173.9071 14.77332049825333
SL-8 R/B                
1 08459U 75112B   25326.17050374  .00000332  00000+0  11795-3 0  9990
2 08459  74.0605 216.6902 0016108 330.7270  29.2980 14.38126819616415
SL-3 R/B                
1 10114U 77057B   25326.51729806  .00012124  00000+0  28349-3 0  9997
2 10114  97.5681 129.0692 0006858 317.6113  42.4603 15.42290628651799
SEASAT 1                
1 10967U 78064A   25326.48237566  .00000441  00000+0  16198-3 0  9993
2 10967 108.0083 260.5393 0002129 252.1788 107.9125 14.46027985491016
SL-14 R/B               
1 11267U 79011B   25326.59789486  .00000625  00000+0  59364-4 0  9992
2 11267  82.5252 198.1446 0017471  58.0317 302.2598 14.91735414512815
SL-8 R/B                
1 11574U 79089B   25326.37415538  .00000323  00000+0  10579-3 0  9997
2 11574  74.0681 289.6714 0014710 132.5402 227.6999 14.42263172420634
SL-14 R/B               
1 11672U 80005B   25326.33924552  .00000823  00000+0  80993-4 0  9996
2 11672  82.5163  49.0438 0016384 156.6933 203.5032 14.90755073460496
SL-8 R/B                
1 12139U 81003B   25326.21359923  .00025293  00000+0  68549-3 0  9995
2 12139  82.9321  29.0826 0281921 191.2607 168.2234 15.06055045298476
SL-3 R/B                
1 12465U 81046B   25326.60782669  .00011700  00000+0  29984-3 0  9992
2 12465  81.2344  58.0075 0020261  34.1407 326.1132 15.39023256421941
SL-3 R/B                
1 12904U 81103B   25326.51670152  .00007561  00000+0  35058-3 0  9996
2 12904  81.1588 339.0341 0011508 292.5001  67.5011 15.19880469956940
SL-3 R/B                
1 13068U 82013B   25326.51192426  .00005196  00000+0  23281-3 0  9999
2 13068  81.1740 286.2817 0022801 176.5342 183.6052 15.20823185388050
SL-3 R/B                
1 13154U 82039B   25326.55332895  .00002740  00000+0  16835-3 0  9992
2 13154  81.1757 339.3135 0031355 319.5842  40.3053 15.09356698365473
