CCSDS_OMM_VERS = 2.0
CREATION_DATE  = 
ORIGINATOR     = 

OBJECT_NAME    = ATLAS CENTAUR R/B
OBJECT_ID      = 1972-065B
CENTER_NAME    = EARTH
REF_FRAME      = TEME
TIME_SYSTEM    = UTC
MEAN_ELEMENT_THEORY = SGP/SGP4

EPOCH          = 2025-11-22T01:08:23.748576
MEAN_MOTION    = 14.77332049
ECCENTRICITY   = .00338926
INCLINATION    = 35.0007
RA_OF_ASC_NODE = 216.4032
ARG_OF_PERICENTER = 186.1218
MEAN_ANOMALY   = 173.9071

EPHEMERIS_TYPE = 0
CLASSIFICATION_TYPE = U
NORAD_CAT_ID   = 6155
ELEMENT_SET_NO = 999
REV_AT_EPOCH   = 82533
BSTAR          = .18370412E-3
MEAN_MOTION_DOT = .1316E-4
MEAN_MOTION_DDOT = 0

CCSDS_OMM_VERS = 2.0
CREATION_DATE  = 
ORIGINATOR     = 

OBJECT_NAME    = SL-8 R/B
OBJECT_ID      = 1975-112B
CENTER_NAME    = EARTH
REF_FRAME      = TEME
TIME_SYSTEM    = UTC
MEAN_ELEMENT_THEORY = SGP/SGP4

EPOCH          = 2025-11-22T04:05:31.523136
MEAN_MOTION    = 14.38126819
ECCENTRICITY   = .00161081
INCLINATION    = 74.0605
RA_OF_ASC_NODE = 216.6902
ARG_OF_PERICENTER = 330.7270
MEAN_ANOMALY   = 29.2980

EPHEMERIS_TYPE = 0
CLASSIFICATION_TYPE = U
NORAD_CAT_ID   = 8459
ELEMENT_SET_NO = 999
REV_AT_EPOCH   = 61641
BSTAR          = .11794719E-3
MEAN_MOTION_DOT = .332E-5
MEAN_MOTION_DDOT = 0

CCSDS_OMM_VERS = 2.0
CREATION_DATE  = 
ORIGINATOR     = 

OBJECT_NAME    = SL-3 R/B
OBJECT_ID      = 1977-057B
CENTER_NAME    = EARTH
REF_FRAME      = TEME
TIME_SYSTEM    = UTC
MEAN_ELEMENT_THEORY = SGP/SGP4

EPOCH          = 2025-11-22T12:24:54.552384
MEAN_MOTION    = 15.42290628
ECCENTRICITY   = .00068583
INCLINATION    = 97.5681
RA_OF_ASC_NODE = 129.0692
ARG_OF_PERICENTER = 317.6113
MEAN_ANOMALY   = 42.4603

EPHEMERIS_TYPE = 0
CLASSIFICATION_TYPE = U
NORAD_CAT_ID   = 10114
ELEMENT_SET_NO = 999
REV_AT_EPOCH   = 65179
BSTAR          = .28349017E-3
MEAN_MOTION_DOT = .12124E-3
MEAN_MOTION_DDOT = 0

CCSDS_OMM_VERS = 2.0
CREATION_DATE  = 
ORIGINATOR     = 

OBJECT_NAME    = SEASAT 1
OBJECT_ID      = 1978-064A
CENTER_NAME    = EARTH
REF_FRAME      = TEME
TIME_SYSTEM    = UTC
MEAN_ELEMENT_THEORY = SGP/SGP4

EPOCH          = 2025-11-22T11:34:37.257024
MEAN_MOTION    = 14.46027985
ECCENTRICITY   = .00021295
INCLINATION    = 108.0083
RA_OF_ASC_NODE = 260.5393
ARG_OF_PERICENTER = 252.1788
MEAN_ANOMALY   = 107.9125

EPHEMERIS_TYPE = 0
CLASSIFICATION_TYPE = U
NORAD_CAT_ID   = 10967
ELEMENT_SET_NO = 999
REV_AT_EPOCH   = 49101
BSTAR          = .16197867E-3
MEAN_MOTION_DOT = .441E-5
MEAN_MOTION_DDOT = 0

CCSDS_OMM_VERS = 2.0
CREATION_DATE  = 
ORIGINATOR     = 

OBJECT_NAME    = SL-14 R/B
OBJECT_ID      = 1979-011B
CENTER_NAME    = EARTH
REF_FRAME      = TEME
TIME_SYSTEM    = UTC
MEAN_ELEMENT_THEORY = SGP/SGP4

EPOCH          = 2025-11-22T14:20:58.115904
MEAN_MOTION    = 14.91735414
ECCENTRICITY   = .00174718
INCLINATION    = 82.5252
RA_OF_ASC_NODE = 198.1446
ARG_OF_PERICENTER = 58.0317
MEAN_ANOMALY   = 302.2598

EPHEMERIS_TYPE = 0
CLASSIFICATION_TYPE = U
NORAD_CAT_ID   = 11267
ELEMENT_SET_NO = 999
REV_AT_EPOCH   = 51281
BSTAR          = .5936442E-4
MEAN_MOTION_DOT = .625E-5
MEAN_MOTION_DDOT = 0

CCSDS_OMM_VERS = 2.0
CREATION_DATE  = 
ORIGINATOR     = 

OBJECT_NAME    = SL-8 R/B
OBJECT_ID      = 1979-089B
CENTER_NAME    = EARTH
REF_FRAME      = TEME
TIME_SYSTEM    = UTC
MEAN_ELEMENT_THEORY = SGP/SGP4

EPOCH          = 2025-11-22T08:58:47.024832
MEAN_MOTION    = 14.42263172
ECCENTRICITY   = .00147104
INCLINATION    = 74.0681
RA_OF_ASC_NODE = 289.6714
ARG_OF_PERICENTER = 132.5402
MEAN_ANOMALY   = 227.6999

EPHEMERIS_TYPE = 0
CLASSIFICATION_TYPE = U
NORAD_CAT_ID   = 11574
ELEMENT_SET_NO = 999
REV_AT_EPOCH   = 42063
BSTAR          = .10578967E-3
MEAN_MOTION_DOT = .323E-5
MEAN_MOTION_DDOT = 0

CCSDS_OMM_VERS = 2.0
CREATION_DATE  = 
ORIGINATOR     = 

OBJECT_NAME    = SL-14 R/B
OBJECT_ID      = 1980-005B
CENTER_NAME    = EARTH
REF_FRAME      = TEME
TIME_SYSTEM    = UTC
MEAN_ELEMENT_THEORY = SGP/SGP4

EPOCH          = 2025-11-22T08:08:30.812928
MEAN_MOTION    = 14.90755073
ECCENTRICITY   = .00163845
INCLINATION    = 82.5163
RA_OF_ASC_NODE = 49.0438
ARG_OF_PERICENTER = 156.6933
MEAN_ANOMALY   = 203.5032

EPHEMERIS_TYPE = 0
CLASSIFICATION_TYPE = U
NORAD_CAT_ID   = 11672
ELEMENT_SET_NO = 999
REV_AT_EPOCH   = 46049
BSTAR          = .80992828E-4
MEAN_MOTION_DOT = .823E-5
MEAN_MOTION_DDOT = 0

CCSDS_OMM_VERS = 2.0
CREATION_DATE  = 
ORIGINATOR     = 

OBJECT_NAME    = SL-8 R/B
OBJECT_ID      = 1981-003B
CENTER_NAME    = EARTH
REF_FRAME      = TEME
TIME_SYSTEM    = UTC
MEAN_ELEMENT_THEORY = SGP/SGP4

EPOCH          = 2025-11-22T05:07:34.973472
MEAN_MOTION    = 15.06055045
ECCENTRICITY   = .02819212
INCLINATION    = 82.9321
RA_OF_ASC_NODE = 29.0826
ARG_OF_PERICENTER = 191.2607
MEAN_ANOMALY   = 168.2234

EPHEMERIS_TYPE = 0
CLASSIFICATION_TYPE = U
NORAD_CAT_ID   = 12139
ELEMENT_SET_NO = 999
REV_AT_EPOCH   = 29847
BSTAR          = .68549298E-3
MEAN_MOTION_DOT = .25293E-3
MEAN_MOTION_DDOT = 0

CCSDS_OMM_VERS = 2.0
CREATION_DATE  = 
ORIGINATOR     = 

OBJECT_NAME    = SL-3 R/B
OBJECT_ID      = 1981-046B
CENTER_NAME    = EARTH
REF_FRAME      = TEME
TIME_SYSTEM    = UTC
MEAN_ELEMENT_THEORY = SGP/SGP4

EPOCH          = 2025-11-22T14:35:16.226016
MEAN_MOTION    = 15.39023256
ECCENTRICITY   = .00202614
INCLINATION    = 81.2344
RA_OF_ASC_NODE = 58.0075
ARG_OF_PERICENTER = 34.1407
MEAN_ANOMALY   = 326.1132

EPHEMERIS_TYPE = 0
CLASSIFICATION_TYPE = U
NORAD_CAT_ID   = 12465
ELEMENT_SET_NO = 999
REV_AT_EPOCH   = 42194
BSTAR          = .29984076E-3
MEAN_MOTION_DOT = .117E-3
MEAN_MOTION_DDOT = 0

CCSDS_OMM_VERS = 2.0
CREATION_DATE  = 
ORIGINATOR     = 

OBJECT_NAME    = SL-3 R/B
OBJECT_ID      = 1981-103B
CENTER_NAME    = EARTH
REF_FRAME      = TEME
TIME_SYSTEM    = UTC
MEAN_ELEMENT_THEORY = SGP/SGP4

EPOCH          = 2025-11-22T12:24:03.011328
MEAN_MOTION    = 15.19880469
ECCENTRICITY   = .00115084
INCLINATION    = 81.1588
RA_OF_ASC_NODE = 339.0341
ARG_OF_PERICENTER = 292.5001
MEAN_ANOMALY   = 67.5011

EPHEMERIS_TYPE = 0
CLASSIFICATION_TYPE = U
NORAD_CAT_ID   = 12904
ELEMENT_SET_NO = 999
REV_AT_EPOCH   = 95694
BSTAR          = .35058231E-3
MEAN_MOTION_DOT = .7561E-4
MEAN_MOTION_DDOT = 0

CCSDS_OMM_VERS = 2.0
CREATION_DATE  = 
ORIGINATOR     = 

OBJECT_NAME    = SL-3 R/B
OBJECT_ID      = 1982-013B
CENTER_NAME    = EARTH
REF_FRAME      = TEME
TIME_SYSTEM    = UTC
MEAN_ELEMENT_THEORY = SGP/SGP4

EPOCH          = 2025-11-22T12:17:10.256064
MEAN_MOTION    = 15.20823185
ECCENTRICITY   = .00228019
INCLINATION    = 81.1740
RA_OF_ASC_NODE = 286.2817
ARG_OF_PERICENTER = 176.5342
MEAN_ANOMALY   = 183.6052

EPHEMERIS_TYPE = 0
CLASSIFICATION_TYPE = U
NORAD_CAT_ID   = 13068
ELEMENT_SET_NO = 999
REV_AT_EPOCH   = 38805
BSTAR          = .23281196E-3
MEAN_MOTION_DOT = .5196E-4
MEAN_MOTION_DDOT = 0

CCSDS_OMM_VERS = 2.0
CREATION_DATE  = 
ORIGINATOR     = 

OBJECT_NAME    = SL-3 R/B
OBJECT_ID      = 1982-039B
CENTER_NAME    = EARTH
REF_FRAME      = TEME
TIME_SYSTEM    = UTC
MEAN_ELEMENT_THEORY = SGP/SGP4

EPOCH          = 2025-11-22T13:16:47.621280
MEAN_MOTION    = 15.09356698
ECCENTRICITY   = .00313559
INCLINATION    = 81.1757
RA_OF_ASC_NODE = 339.3135
ARG_OF_PERICENTER = 319.5842
MEAN_ANOMALY   = 40.3053

EPHEMERIS_TYPE = 0
CLASSIFICATION_TYPE = U
NORAD_CAT_ID   = 13154
ELEMENT_SET_NO = 999
REV_AT_EPOCH   = 36547
BSTAR          = .16834566E-3
MEAN_MOTION_DOT = .274E-4
MEAN_MOTION_DDOT = 0

